[{"OBJECT_NAME":"STARLINK-33876","OBJECT_ID":"2025-083F","EPOCH":"2026-03-09T05:06:22.440672","MEAN_MOTION":15.27590776,"ECCENTRICITY":0.00016181,"INCLINATION":43.0046,"RA_OF_ASC_NODE":7.9222,"ARG_OF_PERICENTER":268.9865,"MEAN_ANOMALY":91.0801,"EPHEMERIS_TYPE":0,"CLASSIFICATION_TYPE":"U","NORAD_CAT_ID":63639,"ELEMENT_SET_NO":999,"REV_AT_EPOCH":4999,"BSTAR":0.0013464953,"MEAN_MOTION_DOT":0.00036989,"MEAN_MOTION_DDOT":0},{"OBJECT_NAME":"OV1-9 R\/B","OBJECT_ID":"1966-111D","EPOCH":"2026-03-09T11:11:11.790816","MEAN_MOTION":10.49794392,"ECCENTRICITY":0.22219732,"INCLINATION":99.1017,"RA_OF_ASC_NODE":33.3571,"ARG_OF_PERICENTER":215.4287,"MEAN_ANOMALY":127.6991,"EPHEMERIS_TYPE":0,"CLASSIFICATION_TYPE":"U","NORAD_CAT_ID":2622,"ELEMENT_SET_NO":999,"REV_AT_EPOCH":23443,"BSTAR":0.00023551925,"MEAN_MOTION_DOT":5.76e-6,"MEAN_MOTION_DDOT":0}]
